{
  "type": "FeatureCollection",
  "features": [
    {
      "type": "Feature",
      "properties": {
        "id": "I595_EXPRESS_REV",
        "road": "I-595",
        "facility": "express_reversible",
        "direction": "REVERSIBLE",
        "source": "FDOT RCI/LRS",
        "roadway": "86095900",
        "begin_post": 0,
        "end_post": 8.796,
        "crs": "EPSG:4326",
        "note": "FDOT managed-lane reference geometry; direction changes operationally."
      },
      "geometry": {
        "type": "LineString",
        "coordinates": [
          [
            -80.3437348474896,
            26.1192146922365
          ],
          [
            -80.3435378284458,
            26.1192079884255
          ],
          [
            -80.3416335499867,
            26.1190680103567
          ],
          [
            -80.3399922960385,
            26.1189688215655
          ],
          [
            -80.3365938025303,
            26.1187921956316
          ],
          [
            -80.3363756565579,
            26.1188048258961
          ],
          [
            -80.3358637438995,
            26.1187773831518
          ],
          [
            -80.3355595173745,
            26.1187592580444
          ],
          [
            -80.3353611075554,
            26.1187475931002
          ],
          [
            -80.3350912412926,
            26.1187367929067
          ],
          [
            -80.3348915228811,
            26.1187227321186
          ],
          [
            -80.3347618962003,
            26.1187149665184
          ],
          [
            -80.334568771662,
            26.1187045194564
          ],
          [
            -80.3343385865706,
            26.1186962892746
          ],
          [
            -80.3335264391747,
            26.1186471455236
          ],
          [
            -80.3328241531083,
            26.1185913390989
          ],
          [
            -80.3321589283659,
            26.1185333117938
          ],
          [
            -80.3316775666495,
            26.1184856896654
          ],
          [
            -80.3314276506476,
            26.1184570572982
          ],
          [
            -80.3309080000667,
            26.1183949209632
          ],
          [
            -80.3306210841855,
            26.1183577534055
          ],
          [
            -80.3301358428326,
            26.1182945794832
          ],
          [
            -80.3296387544851,
            26.118220598521
          ],
          [
            -80.329221021247,
            26.1181529571089
          ],
          [
            -80.3284847283945,
            26.118028884788
          ],
          [
            -80.328242827642,
            26.1179871438697
          ],
          [
            -80.3275106091461,
            26.1178451677791
          ],
          [
            -80.3269079352628,
            26.1177252935269
          ],
          [
            -80.3263925058284,
            26.1176201585081
          ],
          [
            -80.3255797943951,
            26.117440765457
          ],
          [
            -80.3251741046752,
            26.117350473504
          ],
          [
            -80.3245041491461,
            26.1171968287741
          ],
          [
            -80.3238896762842,
            26.1170589689016
          ],
          [
            -80.3231946062056,
            26.1169016157024
          ],
          [
            -80.3225524203947,
            26.1167516751693
          ],
          [
            -80.3218653335674,
            26.1165871865435
          ],
          [
            -80.3211980945478,
            26.1164227881195
          ],
          [
            -80.3208559140245,
            26.1163339776922
          ],
          [
            -80.3191356256692,
            26.1159125643551
          ],
          [
            -80.3186216467797,
            26.1157882962249
          ],
          [
            -80.3159037597969,
            26.1151358605505
          ],
          [
            -80.3115093181821,
            26.1140911856304
          ],
          [
            -80.309823673384,
            26.1136438293509
          ],
          [
            -80.3073520094057,
            26.1130284147406
          ],
          [
            -80.3022268400804,
            26.11179658947
          ],
          [
            -80.297557970793,
            26.1106786187647
          ],
          [
            -80.2953610601677,
            26.1101473493758
          ],
          [
            -80.2927669706845,
            26.1095119869169
          ],
          [
            -80.2915203767391,
            26.1092499282651
          ],
          [
            -80.2850268306852,
            26.1076669725387
          ],
          [
            -80.2824961866794,
            26.1070546622068
          ],
          [
            -80.2811655770701,
            26.1067004231672
          ],
          [
            -80.2788969806812,
            26.1061390154967
          ],
          [
            -80.2746599875031,
            26.1050596373166
          ],
          [
            -80.2678372981461,
            26.1034131325084
          ],
          [
            -80.2631437569308,
            26.102304361011
          ],
          [
            -80.2588307103036,
            26.1012546818437
          ],
          [
            -80.2578001142813,
            26.1009819883548
          ],
          [
            -80.2568204729124,
            26.1006828108592
          ],
          [
            -80.2559591607998,
            26.1004033305397
          ],
          [
            -80.2550768049664,
            26.1001084526077
          ],
          [
            -80.2542621144432,
            26.0998177467147
          ],
          [
            -80.2533290700966,
            26.0995111406928
          ],
          [
            -80.2523283956635,
            26.0991965402881
          ],
          [
            -80.2512344756114,
            26.0989081891481
          ],
          [
            -80.2501362114314,
            26.0986389086076
          ],
          [
            -80.2489489655664,
            26.0983920772544
          ],
          [
            -80.247850256709,
            26.0981953489121
          ],
          [
            -80.2445622886539,
            26.0976510081914
          ],
          [
            -80.2435609414097,
            26.0974471293512
          ],
          [
            -80.2403379614941,
            26.0966738351986
          ],
          [
            -80.2344454762733,
            26.0952598586322
          ],
          [
            -80.2300740167011,
            26.094167002977
          ],
          [
            -80.2265725966535,
            26.0933040720556
          ],
          [
            -80.2247182238253,
            26.0928777366051
          ],
          [
            -80.2235520474008,
            26.0926613687331
          ],
          [
            -80.2232731870104,
            26.0926128243403
          ],
          [
            -80.2230991004442,
            26.0925825121068
          ],
          [
            -80.2223519848769,
            26.0924524466665
          ],
          [
            -80.2215915170255,
            26.0922993656664
          ],
          [
            -80.2206495833601,
            26.0920803658368
          ],
          [
            -80.2186217902182,
            26.0914823171674
          ],
          [
            -80.2181162883633,
            26.0913332244545
          ],
          [
            -80.2173815213208,
            26.0911344283764
          ],
          [
            -80.2147969542319,
            26.0904709870759
          ],
          [
            -80.2138807376659,
            26.0902062429499
          ],
          [
            -80.2129562882749,
            26.0899070711864
          ],
          [
            -80.2122880088483,
            26.089669094821
          ],
          [
            -80.2120193884544,
            26.0895734404763
          ],
          [
            -80.2110994850441,
            26.08922843139
          ],
          [
            -80.2102472751498,
            26.0888837961119
          ],
          [
            -80.2091593424849,
            26.0883659638362
          ],
          [
            -80.2083331849148,
            26.0879221405942
          ],
          [
            -80.2076715056913,
            26.0875556149915
          ],
          [
            -80.2071153013202,
            26.0872682013289
          ]
        ]
      }
    }
  ]
}