{
  "type": "FeatureCollection",
  "features": [
    {
      "type": "Feature",
      "properties": {
        "id": "I595_GP_WB",
        "road": "I-595",
        "name": "Port Everglades Expressway",
        "facility": "general_purpose_mainline",
        "direction": "WB",
        "source": "OpenStreetMap / Overpass",
        "source_relation": 285696,
        "osm_way_count": 65,
        "oneway": true,
        "crs": "EPSG:4326",
        "note": "Merged from connected OSM I-595 route-member ways; suitable for visualization/routing, not survey/as-built geometry."
      },
      "geometry": {
        "type": "LineString",
        "coordinates": [
          [
            -80.1306582,
            26.0815159
          ],
          [
            -80.1308543,
            26.0813973
          ],
          [
            -80.1310621,
            26.0812781
          ],
          [
            -80.1311572,
            26.0812271
          ],
          [
            -80.1312625,
            26.0811755
          ],
          [
            -80.1313724,
            26.0811291
          ],
          [
            -80.1314905,
            26.0810821
          ],
          [
            -80.1315983,
            26.0810435
          ],
          [
            -80.1317144,
            26.0810049
          ],
          [
            -80.1318288,
            26.0809742
          ],
          [
            -80.13195,
            26.0809436
          ],
          [
            -80.1320598,
            26.0809201
          ],
          [
            -80.1321803,
            26.0808972
          ],
          [
            -80.1323062,
            26.0808778
          ],
          [
            -80.1324377,
            26.0808636
          ],
          [
            -80.1325581,
            26.0808527
          ],
          [
            -80.132673,
            26.0808469
          ],
          [
            -80.132792,
            26.0808438
          ],
          [
            -80.1329187,
            26.0808422
          ],
          [
            -80.1334081,
            26.0808429
          ],
          [
            -80.1337802,
            26.0808493
          ],
          [
            -80.1341388,
            26.0808594
          ],
          [
            -80.13453,
            26.0808736
          ],
          [
            -80.1348788,
            26.0808897
          ],
          [
            -80.1354464,
            26.0809046
          ],
          [
            -80.1369166,
            26.0810629
          ],
          [
            -80.1391546,
            26.0813347
          ],
          [
            -80.1396707,
            26.0813883
          ],
          [
            -80.1401874,
            26.0814346
          ],
          [
            -80.1406836,
            26.0814744
          ],
          [
            -80.1411529,
            26.08151
          ],
          [
            -80.1415134,
            26.0815231
          ],
          [
            -80.1418692,
            26.0815303
          ],
          [
            -80.1422149,
            26.0815325
          ],
          [
            -80.1426825,
            26.0815318
          ],
          [
            -80.1568422,
            26.0814597
          ],
          [
            -80.1591729,
            26.0814806
          ],
          [
            -80.1596733,
            26.0814927
          ],
          [
            -80.1627102,
            26.0816482
          ],
          [
            -80.1637437,
            26.0817003
          ],
          [
            -80.1660947,
            26.0819195
          ],
          [
            -80.1676441,
            26.0820863
          ],
          [
            -80.1712289,
            26.0825802
          ],
          [
            -80.1718735,
            26.0826867
          ],
          [
            -80.172623,
            26.0828149
          ],
          [
            -80.1734066,
            26.082944
          ],
          [
            -80.1742196,
            26.0830725
          ],
          [
            -80.1752607,
            26.0832091
          ],
          [
            -80.1758994,
            26.0832782
          ],
          [
            -80.177392,
            26.0834008
          ],
          [
            -80.1800179,
            26.0836849
          ],
          [
            -80.1819964,
            26.0839229
          ],
          [
            -80.1828902,
            26.084006
          ],
          [
            -80.183843,
            26.0840677
          ],
          [
            -80.1849588,
            26.084114
          ],
          [
            -80.1857999,
            26.0841294
          ],
          [
            -80.1906094,
            26.0840587
          ],
          [
            -80.1920776,
            26.0840497
          ],
          [
            -80.1930438,
            26.084043
          ],
          [
            -80.1941488,
            26.0840314
          ],
          [
            -80.1947702,
            26.0840285
          ],
          [
            -80.1952531,
            26.0840331
          ],
          [
            -80.1956297,
            26.0840399
          ],
          [
            -80.1959838,
            26.0840484
          ],
          [
            -80.1963449,
            26.0840522
          ],
          [
            -80.1966104,
            26.0840601
          ],
          [
            -80.1968624,
            26.084075
          ],
          [
            -80.1970605,
            26.0840847
          ],
          [
            -80.1979346,
            26.0841371
          ],
          [
            -80.1981584,
            26.0841627
          ],
          [
            -80.1984007,
            26.0841934
          ],
          [
            -80.1985411,
            26.0842131
          ],
          [
            -80.199027,
            26.0842799
          ],
          [
            -80.1993849,
            26.0843486
          ],
          [
            -80.1995257,
            26.0843767
          ],
          [
            -80.2001489,
            26.0845123
          ],
          [
            -80.2008494,
            26.0846905
          ],
          [
            -80.2015404,
            26.0848945
          ],
          [
            -80.2023685,
            26.0851722
          ],
          [
            -80.2034472,
            26.0856251
          ],
          [
            -80.2041194,
            26.0859576
          ],
          [
            -80.2044983,
            26.0861386
          ],
          [
            -80.2048815,
            26.0863318
          ],
          [
            -80.2062175,
            26.087053
          ],
          [
            -80.2070542,
            26.0875046
          ],
          [
            -80.2078774,
            26.0879345
          ],
          [
            -80.2085217,
            26.0882536
          ],
          [
            -80.2092258,
            26.0885731
          ],
          [
            -80.2096969,
            26.0887751
          ],
          [
            -80.2100505,
            26.0889296
          ],
          [
            -80.2109414,
            26.0892943
          ],
          [
            -80.2114989,
            26.0895136
          ],
          [
            -80.2119517,
            26.0896791
          ],
          [
            -80.2125173,
            26.0898827
          ],
          [
            -80.2130866,
            26.0900729
          ],
          [
            -80.2134344,
            26.0901844
          ],
          [
            -80.2138923,
            26.0903279
          ],
          [
            -80.2142413,
            26.0904327
          ],
          [
            -80.2152857,
            26.0907262
          ],
          [
            -80.2162288,
            26.0909631
          ],
          [
            -80.2176236,
            26.0913707
          ],
          [
            -80.2196781,
            26.0919793
          ],
          [
            -80.2218014,
            26.092526
          ],
          [
            -80.2239661,
            26.0929536
          ],
          [
            -80.2246786,
            26.0930995
          ],
          [
            -80.2266505,
            26.0935398
          ],
          [
            -80.2269594,
            26.0936085
          ],
          [
            -80.2334535,
            26.0951861
          ],
          [
            -80.2343894,
            26.0954135
          ],
          [
            -80.2350383,
            26.0955664
          ],
          [
            -80.2364443,
            26.0958923
          ],
          [
            -80.2389283,
            26.0964881
          ],
          [
            -80.2420489,
            26.0972373
          ],
          [
            -80.2429268,
            26.0974631
          ],
          [
            -80.2436226,
            26.0976293
          ],
          [
            -80.2441054,
            26.0977383
          ],
          [
            -80.2445794,
            26.0978392
          ],
          [
            -80.2450646,
            26.0979377
          ],
          [
            -80.2458979,
            26.0980911
          ],
          [
            -80.2463271,
            26.0981617
          ],
          [
            -80.2479172,
            26.0984234
          ],
          [
            -80.2491097,
            26.09864
          ],
          [
            -80.2502628,
            26.0988881
          ],
          [
            -80.2509605,
            26.0990588
          ],
          [
            -80.2513258,
            26.0991526
          ],
          [
            -80.2516799,
            26.0992497
          ],
          [
            -80.2527251,
            26.0995511
          ],
          [
            -80.2535317,
            26.0998072
          ],
          [
            -80.2543296,
            26.100076
          ],
          [
            -80.2555877,
            26.1005004
          ],
          [
            -80.2568426,
            26.1008996
          ],
          [
            -80.2577055,
            26.1011342
          ],
          [
            -80.2577894,
            26.1011551
          ],
          [
            -80.2593884,
            26.101554
          ],
          [
            -80.2648571,
            26.1028641
          ],
          [
            -80.2659972,
            26.1031345
          ],
          [
            -80.2699743,
            26.1041136
          ],
          [
            -80.2727916,
            26.104793
          ],
          [
            -80.2762197,
            26.1056222
          ],
          [
            -80.2794829,
            26.1064915
          ],
          [
            -80.2814715,
            26.1069773
          ],
          [
            -80.2824891,
            26.1072201
          ],
          [
            -80.2851922,
            26.1078682
          ],
          [
            -80.2863339,
            26.1081419
          ],
          [
            -80.2887078,
            26.1087154
          ],
          [
            -80.2909933,
            26.1092271
          ],
          [
            -80.2971114,
            26.1107582
          ],
          [
            -80.2980936,
            26.1109931
          ],
          [
            -80.3046063,
            26.112554
          ],
          [
            -80.3075236,
            26.1132536
          ],
          [
            -80.3129407,
            26.114641
          ],
          [
            -80.3141999,
            26.1149419
          ],
          [
            -80.3148168,
            26.1150901
          ],
          [
            -80.3211755,
            26.1166306
          ],
          [
            -80.3266952,
            26.1178626
          ],
          [
            -80.3275648,
            26.1180435
          ],
          [
            -80.3280102,
            26.1181336
          ],
          [
            -80.3284945,
            26.1182248
          ],
          [
            -80.3296275,
            26.1184062
          ],
          [
            -80.3301313,
            26.1184794
          ],
          [
            -80.3306306,
            26.1185486
          ],
          [
            -80.3314699,
            26.1186567
          ],
          [
            -80.3323091,
            26.1187496
          ],
          [
            -80.3333475,
            26.1188805
          ],
          [
            -80.3336797,
            26.1189199
          ],
          [
            -80.3344281,
            26.1189816
          ],
          [
            -80.3345472,
            26.1189921
          ],
          [
            -80.3346502,
            26.1190033
          ],
          [
            -80.33702,
            26.1192724
          ],
          [
            -80.3395118,
            26.1194923
          ],
          [
            -80.3406104,
            26.1196248
          ],
          [
            -80.3418623,
            26.1198018
          ],
          [
            -80.3432755,
            26.1200626
          ],
          [
            -80.3444728,
            26.1203184
          ],
          [
            -80.34582,
            26.1206309
          ],
          [
            -80.3460947,
            26.1206972
          ],
          [
            -80.346979,
            26.1209272
          ],
          [
            -80.3478202,
            26.1211584
          ],
          [
            -80.3495514,
            26.1216742
          ],
          [
            -80.3502509,
            26.1218855
          ],
          [
            -80.3520871,
            26.1225114
          ],
          [
            -80.3548997,
            26.1234926
          ],
          [
            -80.3570398,
            26.1242905
          ],
          [
            -80.3577738,
            26.1245864
          ],
          [
            -80.3594761,
            26.1251569
          ]
        ]
      }
    }
  ]
}