{
  "type": "FeatureCollection",
  "features": [
    {
      "type": "Feature",
      "properties": {
        "id": "I595_GP_EB",
        "road": "I-595",
        "name": "Port Everglades Expressway",
        "facility": "general_purpose_mainline",
        "direction": "EB",
        "source": "OpenStreetMap / Overpass",
        "source_relation": 285696,
        "osm_way_count": 76,
        "oneway": true,
        "crs": "EPSG:4326",
        "note": "Merged from connected OSM I-595 route-member ways; suitable for visualization/routing, not survey/as-built geometry."
      },
      "geometry": {
        "type": "LineString",
        "coordinates": [
          [
            -80.3644818,
            26.1264157
          ],
          [
            -80.3635402,
            26.1260848
          ],
          [
            -80.3626222,
            26.1257468
          ],
          [
            -80.3618231,
            26.1254469
          ],
          [
            -80.3613867,
            26.1252769
          ],
          [
            -80.3609817,
            26.1251068
          ],
          [
            -80.3601407,
            26.1247508
          ],
          [
            -80.3590694,
            26.1242436
          ],
          [
            -80.3581828,
            26.1238259
          ],
          [
            -80.3557902,
            26.1225809
          ],
          [
            -80.3549986,
            26.122187
          ],
          [
            -80.353659,
            26.1215366
          ],
          [
            -80.3525637,
            26.1210308
          ],
          [
            -80.3521046,
            26.1208386
          ],
          [
            -80.3516434,
            26.1206573
          ],
          [
            -80.3512856,
            26.1205225
          ],
          [
            -80.350918,
            26.1203876
          ],
          [
            -80.3505495,
            26.1202615
          ],
          [
            -80.3501636,
            26.1201353
          ],
          [
            -80.3493939,
            26.1198981
          ],
          [
            -80.3490722,
            26.1198122
          ],
          [
            -80.3487207,
            26.1197263
          ],
          [
            -80.3484051,
            26.1196563
          ],
          [
            -80.3480664,
            26.1195834
          ],
          [
            -80.3477643,
            26.1195238
          ],
          [
            -80.3467185,
            26.1193255
          ],
          [
            -80.3458547,
            26.1191855
          ],
          [
            -80.3451766,
            26.1191084
          ],
          [
            -80.3444814,
            26.1190468
          ],
          [
            -80.3436813,
            26.1189942
          ],
          [
            -80.3424966,
            26.1189292
          ],
          [
            -80.3409706,
            26.1188594
          ],
          [
            -80.3402065,
            26.1188195
          ],
          [
            -80.3394513,
            26.1187736
          ],
          [
            -80.3374013,
            26.1186448
          ],
          [
            -80.3352443,
            26.118525
          ],
          [
            -80.334368,
            26.1184763
          ],
          [
            -80.3333892,
            26.1184179
          ],
          [
            -80.3323064,
            26.1183302
          ],
          [
            -80.3318113,
            26.118285
          ],
          [
            -80.3306308,
            26.1181401
          ],
          [
            -80.3301327,
            26.1180683
          ],
          [
            -80.3296257,
            26.1179884
          ],
          [
            -80.3285734,
            26.1178209
          ],
          [
            -80.3277253,
            26.1176387
          ],
          [
            -80.327266,
            26.11754
          ],
          [
            -80.3264444,
            26.117365
          ],
          [
            -80.3256217,
            26.1171726
          ],
          [
            -80.3242054,
            26.1168096
          ],
          [
            -80.3233957,
            26.1166175
          ],
          [
            -80.3226769,
            26.1164583
          ],
          [
            -80.321547,
            26.116221
          ],
          [
            -80.3210149,
            26.1161038
          ],
          [
            -80.3170492,
            26.1151658
          ],
          [
            -80.3156714,
            26.1148647
          ],
          [
            -80.3142039,
            26.1145236
          ],
          [
            -80.3130707,
            26.1142481
          ],
          [
            -80.3109553,
            26.1137305
          ],
          [
            -80.3094633,
            26.1133523
          ],
          [
            -80.3074282,
            26.1128594
          ],
          [
            -80.3040721,
            26.1120553
          ],
          [
            -80.3011236,
            26.1113487
          ],
          [
            -80.2998382,
            26.1110389
          ],
          [
            -80.2981717,
            26.110642
          ],
          [
            -80.2972036,
            26.1104109
          ],
          [
            -80.2916055,
            26.109049
          ],
          [
            -80.2904974,
            26.1087823
          ],
          [
            -80.2865541,
            26.1078277
          ],
          [
            -80.2838038,
            26.1071662
          ],
          [
            -80.282476,
            26.1068468
          ],
          [
            -80.2814958,
            26.1066098
          ],
          [
            -80.2807977,
            26.1064422
          ],
          [
            -80.2794825,
            26.106124
          ],
          [
            -80.2783676,
            26.1058359
          ],
          [
            -80.2771403,
            26.1055122
          ],
          [
            -80.2748602,
            26.1049416
          ],
          [
            -80.2734823,
            26.1046124
          ],
          [
            -80.2700764,
            26.103778
          ],
          [
            -80.2660413,
            26.1027785
          ],
          [
            -80.2650566,
            26.1025428
          ],
          [
            -80.2595332,
            26.1011984
          ],
          [
            -80.2584892,
            26.1009416
          ],
          [
            -80.2581298,
            26.1008397
          ],
          [
            -80.2571999,
            26.10057
          ],
          [
            -80.2559206,
            26.1001541
          ],
          [
            -80.25492,
            26.0998051
          ],
          [
            -80.2538812,
            26.0994483
          ],
          [
            -80.2528616,
            26.0991198
          ],
          [
            -80.2517773,
            26.0988019
          ],
          [
            -80.2511899,
            26.0986518
          ],
          [
            -80.2503034,
            26.09843
          ],
          [
            -80.2492379,
            26.0982047
          ],
          [
            -80.2482663,
            26.0980217
          ],
          [
            -80.2474661,
            26.0978976
          ],
          [
            -80.2465279,
            26.0977519
          ],
          [
            -80.2453593,
            26.0975704
          ],
          [
            -80.2445309,
            26.0974207
          ],
          [
            -80.243933,
            26.0973033
          ],
          [
            -80.2429867,
            26.0970912
          ],
          [
            -80.2406278,
            26.0965181
          ],
          [
            -80.2396872,
            26.0962895
          ],
          [
            -80.2385274,
            26.0959742
          ],
          [
            -80.2365106,
            26.0955044
          ],
          [
            -80.2361568,
            26.0954232
          ],
          [
            -80.2353227,
            26.0952325
          ],
          [
            -80.2350877,
            26.0951767
          ],
          [
            -80.2342659,
            26.094975
          ],
          [
            -80.2336886,
            26.0948309
          ],
          [
            -80.2270915,
            26.0931851
          ],
          [
            -80.2267723,
            26.0931094
          ],
          [
            -80.2244631,
            26.0925567
          ],
          [
            -80.2238104,
            26.0924478
          ],
          [
            -80.222187,
            26.0920765
          ],
          [
            -80.2197943,
            26.0915152
          ],
          [
            -80.2162689,
            26.090656
          ],
          [
            -80.2156614,
            26.0905056
          ],
          [
            -80.2143862,
            26.090158
          ],
          [
            -80.213924,
            26.0900194
          ],
          [
            -80.2135807,
            26.0899121
          ],
          [
            -80.2131217,
            26.0897622
          ],
          [
            -80.2127715,
            26.089646
          ],
          [
            -80.2123305,
            26.0894915
          ],
          [
            -80.2118779,
            26.0893267
          ],
          [
            -80.2114361,
            26.0891571
          ],
          [
            -80.2109943,
            26.0889777
          ],
          [
            -80.2105448,
            26.0887835
          ],
          [
            -80.2101195,
            26.0885904
          ],
          [
            -80.2095828,
            26.0883321
          ],
          [
            -80.2091618,
            26.0881209
          ],
          [
            -80.2087324,
            26.0878938
          ],
          [
            -80.2078431,
            26.0874123
          ],
          [
            -80.2074983,
            26.0872256
          ],
          [
            -80.2054968,
            26.0861508
          ],
          [
            -80.2050701,
            26.0859288
          ],
          [
            -80.2046436,
            26.0857233
          ],
          [
            -80.2043199,
            26.0855713
          ],
          [
            -80.2039879,
            26.0854249
          ],
          [
            -80.2032555,
            26.0851407
          ],
          [
            -80.2024635,
            26.0848661
          ],
          [
            -80.2019522,
            26.0846957
          ],
          [
            -80.2013488,
            26.0845165
          ],
          [
            -80.20119,
            26.0844756
          ],
          [
            -80.2004223,
            26.0842892
          ],
          [
            -80.1993828,
            26.0840832
          ],
          [
            -80.1988645,
            26.0840001
          ],
          [
            -80.1985016,
            26.0839523
          ],
          [
            -80.198327,
            26.0839296
          ],
          [
            -80.1981349,
            26.08391
          ],
          [
            -80.1977089,
            26.0838688
          ],
          [
            -80.1973801,
            26.0838466
          ],
          [
            -80.1971443,
            26.0838349
          ],
          [
            -80.1966094,
            26.0838109
          ],
          [
            -80.1959434,
            26.0837793
          ],
          [
            -80.1953232,
            26.083778
          ],
          [
            -80.1947188,
            26.0837799
          ],
          [
            -80.1933591,
            26.0837798
          ],
          [
            -80.1906565,
            26.0837905
          ],
          [
            -80.1858056,
            26.0838123
          ],
          [
            -80.1850682,
            26.0838123
          ],
          [
            -80.1839599,
            26.0837822
          ],
          [
            -80.1828661,
            26.0837038
          ],
          [
            -80.1819396,
            26.0836059
          ],
          [
            -80.179821,
            26.0833499
          ],
          [
            -80.1793199,
            26.0832893
          ],
          [
            -80.1760142,
            26.0828582
          ],
          [
            -80.1740145,
            26.0826071
          ],
          [
            -80.1726007,
            26.0824295
          ],
          [
            -80.1720491,
            26.082362
          ],
          [
            -80.1713057,
            26.0822755
          ],
          [
            -80.1676874,
            26.0818353
          ],
          [
            -80.1672143,
            26.0817849
          ],
          [
            -80.1668502,
            26.0817494
          ],
          [
            -80.1664971,
            26.0817157
          ],
          [
            -80.1661347,
            26.0816823
          ],
          [
            -80.1657723,
            26.0816515
          ],
          [
            -80.1654107,
            26.0816206
          ],
          [
            -80.1650517,
            26.0815909
          ],
          [
            -80.1646893,
            26.0815637
          ],
          [
            -80.1643302,
            26.0815362
          ],
          [
            -80.1639658,
            26.0815114
          ],
          [
            -80.1635879,
            26.0814858
          ],
          [
            -80.1630808,
            26.0814409
          ],
          [
            -80.1626374,
            26.0814174
          ],
          [
            -80.1623926,
            26.081404
          ],
          [
            -80.1621625,
            26.0813904
          ],
          [
            -80.1619071,
            26.0813765
          ],
          [
            -80.1616695,
            26.0813647
          ],
          [
            -80.1614282,
            26.0813541
          ],
          [
            -80.1611826,
            26.0813458
          ],
          [
            -80.1609423,
            26.0813395
          ],
          [
            -80.1598522,
            26.0813052
          ],
          [
            -80.1594937,
            26.0812976
          ],
          [
            -80.1591303,
            26.0812883
          ],
          [
            -80.1587975,
            26.081281
          ],
          [
            -80.1584936,
            26.0812752
          ],
          [
            -80.1581549,
            26.0812699
          ],
          [
            -80.1578039,
            26.081266
          ],
          [
            -80.1574951,
            26.0812652
          ],
          [
            -80.1568454,
            26.0812603
          ],
          [
            -80.1549547,
            26.0812373
          ],
          [
            -80.1522491,
            26.0812725
          ],
          [
            -80.1505236,
            26.0812826
          ],
          [
            -80.147869,
            26.0813154
          ],
          [
            -80.1475085,
            26.0813178
          ],
          [
            -80.1423066,
            26.0813522
          ],
          [
            -80.1419398,
            26.0813438
          ],
          [
            -80.1415765,
            26.0813341
          ],
          [
            -80.1411806,
            26.0813193
          ],
          [
            -80.1408415,
            26.0813042
          ],
          [
            -80.1400781,
            26.0812673
          ],
          [
            -80.1398752,
            26.0812546
          ],
          [
            -80.1396199,
            26.0812277
          ],
          [
            -80.1390996,
            26.0811688
          ],
          [
            -80.1388389,
            26.0811379
          ],
          [
            -80.1386006,
            26.0811067
          ],
          [
            -80.1383571,
            26.0810741
          ],
          [
            -80.1381183,
            26.0810382
          ],
          [
            -80.1378551,
            26.0809975
          ],
          [
            -80.1376247,
            26.0809581
          ],
          [
            -80.1373912,
            26.0809166
          ],
          [
            -80.1371575,
            26.0808719
          ],
          [
            -80.1369005,
            26.0808221
          ],
          [
            -80.1354757,
            26.0805367
          ],
          [
            -80.1348569,
            26.0804419
          ],
          [
            -80.1342518,
            26.0803253
          ],
          [
            -80.1341076,
            26.0803036
          ],
          [
            -80.1339703,
            26.08028
          ],
          [
            -80.1338414,
            26.0802645
          ],
          [
            -80.1337128,
            26.080255
          ],
          [
            -80.1335749,
            26.0802483
          ],
          [
            -80.1334347,
            26.0802476
          ],
          [
            -80.1332953,
            26.0802531
          ],
          [
            -80.1331458,
            26.0802665
          ],
          [
            -80.1330052,
            26.0802813
          ],
          [
            -80.1328563,
            26.0803074
          ],
          [
            -80.1327187,
            26.0803362
          ],
          [
            -80.1325884,
            26.0803726
          ],
          [
            -80.1324563,
            26.0804199
          ],
          [
            -80.1323152,
            26.0804711
          ],
          [
            -80.1321602,
            26.0805326
          ],
          [
            -80.1319972,
            26.080615
          ],
          [
            -80.131795,
            26.080723
          ],
          [
            -80.1312685,
            26.0810199
          ],
          [
            -80.1305912,
            26.0814058
          ]
        ]
      }
    }
  ]
}