{
  "type": "FeatureCollection",
  "name": "I-595 FDOT Traffic Segments",
  "metadata": {
    "road": "I-595",
    "fdot_roadway": "86095000",
    "segmentation": "FDOT RCI AADT traffic sections",
    "fdot_section_count": 8,
    "feature_count": 16,
    "aadt_year": 2025,
    "crs": "EPSG:4326",
    "note": "FDOT traffic-section boundaries and attributes mapped onto physical OSM directional carriageways."
  },
  "features": [
    {
      "type": "Feature",
      "properties": {
        "segment_id": "I595-EB-FDOT-000000-004182",
        "road": "I-595",
        "facility": "general_purpose_mainline",
        "direction": "EB",
        "fdot_roadway": "86095000",
        "fdot_segment_index": 1,
        "travel_order": 1,
        "begin_post": 0.0,
        "end_post": 4.182,
        "desc_from": "OFF TO NOB HILL RD",
        "desc_to": "Bridge No-860648",
        "aadt": 108000,
        "aadt_year": 2025,
        "cosite": "862803",
        "county": "Broward",
        "district": "4",
        "fdot_objectid": 6684,
        "segmentation_source": "FDOT RCI Annual Average Daily Traffic",
        "physical_geometry_source": "OpenStreetMap / Overpass",
        "segmentation_method": "FDOT AADT boundary coordinates projected to physical OSM carriageway"
      },
      "geometry": {
        "type": "LineString",
        "coordinates": [
          [
            -80.3306615027114,
            26.118143868718665
          ],
          [
            -80.3306308,
            26.1181401
          ],
          [
            -80.3301327,
            26.118068299999997
          ],
          [
            -80.3296257,
            26.117988399999994
          ],
          [
            -80.3285734,
            26.117820899999998
          ],
          [
            -80.3277253,
            26.1176387
          ],
          [
            -80.327266,
            26.117539999999998
          ],
          [
            -80.3264444,
            26.117365000000003
          ],
          [
            -80.3256217,
            26.1171726
          ],
          [
            -80.3242054,
            26.1168096
          ],
          [
            -80.3233957,
            26.116617499999997
          ],
          [
            -80.3226769,
            26.116458299999998
          ],
          [
            -80.321547,
            26.116220999999996
          ],
          [
            -80.3210149,
            26.1161038
          ],
          [
            -80.3170492,
            26.115165800000003
          ],
          [
            -80.3156714,
            26.1148647
          ],
          [
            -80.3142039,
            26.11452359999999
          ],
          [
            -80.3130707,
            26.114248099999998
          ],
          [
            -80.3109553,
            26.113730499999996
          ],
          [
            -80.30946330000002,
            26.1133523
          ],
          [
            -80.3074282,
            26.1128594
          ],
          [
            -80.3040721,
            26.1120553
          ],
          [
            -80.3011236,
            26.1113487
          ],
          [
            -80.2998382,
            26.111038899999997
          ],
          [
            -80.2981717,
            26.110641999999995
          ],
          [
            -80.2972036,
            26.1104109
          ],
          [
            -80.2916055,
            26.109049
          ],
          [
            -80.2904974,
            26.1087823
          ],
          [
            -80.2865541,
            26.1078277
          ],
          [
            -80.2838038,
            26.107166199999995
          ],
          [
            -80.282476,
            26.1068468
          ],
          [
            -80.2814958,
            26.106609799999998
          ],
          [
            -80.2807977,
            26.106442199999993
          ],
          [
            -80.2794825,
            26.106124000000005
          ],
          [
            -80.2783676,
            26.105835899999995
          ],
          [
            -80.2771403,
            26.105512199999993
          ],
          [
            -80.2748602,
            26.104941599999993
          ],
          [
            -80.2734823,
            26.104612399999997
          ],
          [
            -80.2700764,
            26.103778
          ],
          [
            -80.2660413,
            26.102778500000003
          ],
          [
            -80.26577057897397,
            26.102713700368803
          ]
        ]
      }
    },
    {
      "type": "Feature",
      "properties": {
        "segment_id": "I595-EB-FDOT-004182-005142",
        "road": "I-595",
        "facility": "general_purpose_mainline",
        "direction": "EB",
        "fdot_roadway": "86095000",
        "fdot_segment_index": 2,
        "travel_order": 2,
        "begin_post": 4.182,
        "end_post": 5.142,
        "desc_from": "Bridge No-860648",
        "desc_to": "Bridge No-860391",
        "aadt": 154256,
        "aadt_year": 2025,
        "cosite": "860380",
        "county": "Broward",
        "district": "4",
        "fdot_objectid": 7323,
        "segmentation_source": "FDOT RCI Annual Average Daily Traffic",
        "physical_geometry_source": "OpenStreetMap / Overpass",
        "segmentation_method": "FDOT AADT boundary coordinates projected to physical OSM carriageway"
      },
      "geometry": {
        "type": "LineString",
        "coordinates": [
          [
            -80.26577057897397,
            26.102713700368803
          ],
          [
            -80.2650566,
            26.10254279999999
          ],
          [
            -80.25953320000002,
            26.101198399999998
          ],
          [
            -80.2584892,
            26.1009416
          ],
          [
            -80.2581298,
            26.1008397
          ],
          [
            -80.2571999,
            26.100569999999998
          ],
          [
            -80.2559206,
            26.1001541
          ],
          [
            -80.25492,
            26.099805099999994
          ],
          [
            -80.2538812,
            26.099448300000002
          ],
          [
            -80.25286160000002,
            26.0991198
          ],
          [
            -80.2517773,
            26.0988019
          ],
          [
            -80.2511899,
            26.098651800000003
          ],
          [
            -80.25106881039571,
            26.09862150406392
          ]
        ]
      }
    },
    {
      "type": "Feature",
      "properties": {
        "segment_id": "I595-EB-FDOT-005142-006680",
        "road": "I-595",
        "facility": "general_purpose_mainline",
        "direction": "EB",
        "fdot_roadway": "86095000",
        "fdot_segment_index": 3,
        "travel_order": 3,
        "begin_post": 5.142,
        "end_post": 6.68,
        "desc_from": "Bridge No-860391",
        "desc_to": "Bridge No-860378",
        "aadt": 154256,
        "aadt_year": 2025,
        "cosite": "860380",
        "county": "Broward",
        "district": "4",
        "fdot_objectid": 6608,
        "segmentation_source": "FDOT RCI Annual Average Daily Traffic",
        "physical_geometry_source": "OpenStreetMap / Overpass",
        "segmentation_method": "FDOT AADT boundary coordinates projected to physical OSM carriageway"
      },
      "geometry": {
        "type": "LineString",
        "coordinates": [
          [
            -80.25106881039571,
            26.09862150406392
          ],
          [
            -80.25030340000002,
            26.098430000000004
          ],
          [
            -80.2492379,
            26.098204700000004
          ],
          [
            -80.2482663,
            26.098021699999997
          ],
          [
            -80.2474661,
            26.097897599999996
          ],
          [
            -80.2465279,
            26.09775189999999
          ],
          [
            -80.2453593,
            26.0975704
          ],
          [
            -80.2445309,
            26.0974207
          ],
          [
            -80.243933,
            26.097303300000004
          ],
          [
            -80.2429867,
            26.097091199999998
          ],
          [
            -80.2406278,
            26.0965181
          ],
          [
            -80.23968720000002,
            26.096289499999997
          ],
          [
            -80.23852740000001,
            26.0959742
          ],
          [
            -80.2365106,
            26.095504400000003
          ],
          [
            -80.2361568,
            26.0954232
          ],
          [
            -80.2353227,
            26.095232499999995
          ],
          [
            -80.2350877,
            26.09517669999999
          ],
          [
            -80.2342659,
            26.094975000000005
          ],
          [
            -80.2336886,
            26.0948309
          ],
          [
            -80.22715982087362,
            26.093202146003367
          ]
        ]
      }
    },
    {
      "type": "Feature",
      "properties": {
        "segment_id": "I595-EB-FDOT-006680-007350",
        "road": "I-595",
        "facility": "general_purpose_mainline",
        "direction": "EB",
        "fdot_roadway": "86095000",
        "fdot_segment_index": 4,
        "travel_order": 4,
        "begin_post": 6.68,
        "end_post": 7.35,
        "desc_from": "Bridge No-860378",
        "desc_to": "SR-91/TURNPIKE NB",
        "aadt": 229000,
        "aadt_year": 2025,
        "cosite": "862806",
        "county": "Broward",
        "district": "4",
        "fdot_objectid": 7302,
        "segmentation_source": "FDOT RCI Annual Average Daily Traffic",
        "physical_geometry_source": "OpenStreetMap / Overpass",
        "segmentation_method": "FDOT AADT boundary coordinates projected to physical OSM carriageway"
      },
      "geometry": {
        "type": "LineString",
        "coordinates": [
          [
            -80.22715982087362,
            26.093202146003367
          ],
          [
            -80.2270915,
            26.0931851
          ],
          [
            -80.2267723,
            26.0931094
          ],
          [
            -80.2244631,
            26.0925567
          ],
          [
            -80.2238104,
            26.092447799999995
          ],
          [
            -80.222187,
            26.0920765
          ],
          [
            -80.2197943,
            26.091515199999996
          ],
          [
            -80.21675543833169,
            26.090774583514843
          ]
        ]
      }
    },
    {
      "type": "Feature",
      "properties": {
        "segment_id": "I595-EB-FDOT-007350-009892",
        "road": "I-595",
        "facility": "general_purpose_mainline",
        "direction": "EB",
        "fdot_roadway": "86095000",
        "fdot_segment_index": 5,
        "travel_order": 5,
        "begin_post": 7.35,
        "end_post": 9.892,
        "desc_from": "SR-91/TURNPIKE NB",
        "desc_to": "Bridge No-860427",
        "aadt": 229000,
        "aadt_year": 2025,
        "cosite": "862806",
        "county": "Broward",
        "district": "4",
        "fdot_objectid": 6908,
        "segmentation_source": "FDOT RCI Annual Average Daily Traffic",
        "physical_geometry_source": "OpenStreetMap / Overpass",
        "segmentation_method": "FDOT AADT boundary coordinates projected to physical OSM carriageway"
      },
      "geometry": {
        "type": "LineString",
        "coordinates": [
          [
            -80.21675543833169,
            26.090774583514843
          ],
          [
            -80.2162689,
            26.090655999999996
          ],
          [
            -80.2156614,
            26.090505600000007
          ],
          [
            -80.2143862,
            26.090158
          ],
          [
            -80.213924,
            26.090019399999996
          ],
          [
            -80.2135807,
            26.0899121
          ],
          [
            -80.2131217,
            26.089762199999996
          ],
          [
            -80.2127715,
            26.089645999999995
          ],
          [
            -80.2123305,
            26.089491500000005
          ],
          [
            -80.2118779,
            26.089326700000004
          ],
          [
            -80.2114361,
            26.0891571
          ],
          [
            -80.21099430000001,
            26.088977699999997
          ],
          [
            -80.2105448,
            26.088783499999995
          ],
          [
            -80.21011950000002,
            26.088590400000005
          ],
          [
            -80.2095828,
            26.088332099999995
          ],
          [
            -80.2091618,
            26.088120900000003
          ],
          [
            -80.2087324,
            26.0878938
          ],
          [
            -80.2078431,
            26.087412299999997
          ],
          [
            -80.2074983,
            26.087225600000004
          ],
          [
            -80.2054968,
            26.086150799999995
          ],
          [
            -80.2050701,
            26.085928799999994
          ],
          [
            -80.2046436,
            26.085723299999998
          ],
          [
            -80.20431990000002,
            26.085571300000005
          ],
          [
            -80.2039879,
            26.0854249
          ],
          [
            -80.2032555,
            26.085140699999997
          ],
          [
            -80.2024635,
            26.084866099999996
          ],
          [
            -80.2019522,
            26.084695700000005
          ],
          [
            -80.2013488,
            26.084516499999996
          ],
          [
            -80.20119,
            26.084475600000005
          ],
          [
            -80.20042230000001,
            26.084289199999997
          ],
          [
            -80.1993828,
            26.0840832
          ],
          [
            -80.1988645,
            26.084000099999997
          ],
          [
            -80.1985016,
            26.083952299999996
          ],
          [
            -80.198327,
            26.083929599999994
          ],
          [
            -80.1981349,
            26.083909999999992
          ],
          [
            -80.1977089,
            26.083868799999994
          ],
          [
            -80.1973801,
            26.0838466
          ],
          [
            -80.1971443,
            26.083834899999996
          ],
          [
            -80.1966094,
            26.0838109
          ],
          [
            -80.1959434,
            26.083779299999996
          ],
          [
            -80.1953232,
            26.083777999999995
          ],
          [
            -80.19471880000002,
            26.083779899999996
          ],
          [
            -80.1933591,
            26.0837798
          ],
          [
            -80.1906565,
            26.0837905
          ],
          [
            -80.1858056,
            26.083812300000005
          ],
          [
            -80.1850682,
            26.083812299999998
          ],
          [
            -80.1839599,
            26.0837822
          ],
          [
            -80.1828661,
            26.0837038
          ],
          [
            -80.1819396,
            26.083605899999995
          ],
          [
            -80.179821,
            26.0833499
          ],
          [
            -80.1793199,
            26.083289299999997
          ],
          [
            -80.17769856627297,
            26.083077869896915
          ]
        ]
      }
    },
    {
      "type": "Feature",
      "properties": {
        "segment_id": "I595-EB-FDOT-009892-010380",
        "road": "I-595",
        "facility": "general_purpose_mainline",
        "direction": "EB",
        "fdot_roadway": "86095000",
        "fdot_segment_index": 6,
        "travel_order": 6,
        "begin_post": 9.892,
        "end_post": 10.38,
        "desc_from": "Bridge No-860427",
        "desc_to": "Bridge No-860535",
        "aadt": 88500,
        "aadt_year": 2025,
        "cosite": "862807",
        "county": "Broward",
        "district": "4",
        "fdot_objectid": 6328,
        "segmentation_source": "FDOT RCI Annual Average Daily Traffic",
        "physical_geometry_source": "OpenStreetMap / Overpass",
        "segmentation_method": "FDOT AADT boundary coordinates projected to physical OSM carriageway"
      },
      "geometry": {
        "type": "LineString",
        "coordinates": [
          [
            -80.17769856627297,
            26.083077869896915
          ],
          [
            -80.1760142,
            26.082858199999997
          ],
          [
            -80.1740145,
            26.082607099999997
          ],
          [
            -80.1726007,
            26.082429500000003
          ],
          [
            -80.1720491,
            26.082361999999996
          ],
          [
            -80.1713057,
            26.082275499999998
          ],
          [
            -80.16994611543149,
            26.08211010482713
          ]
        ]
      }
    },
    {
      "type": "Feature",
      "properties": {
        "segment_id": "I595-EB-FDOT-010380-012579",
        "road": "I-595",
        "facility": "general_purpose_mainline",
        "direction": "EB",
        "fdot_roadway": "86095000",
        "fdot_segment_index": 7,
        "travel_order": 7,
        "begin_post": 10.38,
        "end_post": 12.579,
        "desc_from": "Bridge No-860535",
        "desc_to": "N/A",
        "aadt": 88500,
        "aadt_year": 2025,
        "cosite": "862807",
        "county": "Broward",
        "district": "4",
        "fdot_objectid": 7246,
        "segmentation_source": "FDOT RCI Annual Average Daily Traffic",
        "physical_geometry_source": "OpenStreetMap / Overpass",
        "segmentation_method": "FDOT AADT boundary coordinates projected to physical OSM carriageway"
      },
      "geometry": {
        "type": "LineString",
        "coordinates": [
          [
            -80.16994611543149,
            26.08211010482713
          ],
          [
            -80.1676874,
            26.081835299999998
          ],
          [
            -80.1672143,
            26.0817849
          ],
          [
            -80.1668502,
            26.081749399999996
          ],
          [
            -80.1664971,
            26.081715699999997
          ],
          [
            -80.1661347,
            26.081682299999997
          ],
          [
            -80.1657723,
            26.081651499999992
          ],
          [
            -80.1654107,
            26.081620600000004
          ],
          [
            -80.1650517,
            26.081590899999995
          ],
          [
            -80.1646893,
            26.081563700000004
          ],
          [
            -80.1643302,
            26.0815362
          ],
          [
            -80.1639658,
            26.081511399999997
          ],
          [
            -80.1635879,
            26.0814858
          ],
          [
            -80.1630808,
            26.081440899999997
          ],
          [
            -80.1626374,
            26.081417399999996
          ],
          [
            -80.1623926,
            26.081403999999996
          ],
          [
            -80.1621625,
            26.0813904
          ],
          [
            -80.1619071,
            26.0813765
          ],
          [
            -80.1616695,
            26.081364699999998
          ],
          [
            -80.1614282,
            26.081354099999988
          ],
          [
            -80.1611826,
            26.081345799999998
          ],
          [
            -80.1609423,
            26.0813395
          ],
          [
            -80.1598522,
            26.0813052
          ],
          [
            -80.1594937,
            26.0812976
          ],
          [
            -80.1591303,
            26.0812883
          ],
          [
            -80.1587975,
            26.081281
          ],
          [
            -80.1584936,
            26.0812752
          ],
          [
            -80.1581549,
            26.08126989999999
          ],
          [
            -80.1578039,
            26.081266000000003
          ],
          [
            -80.1574951,
            26.081265199999997
          ],
          [
            -80.1568454,
            26.081260299999993
          ],
          [
            -80.1549547,
            26.0812373
          ],
          [
            -80.1522491,
            26.081272499999997
          ],
          [
            -80.1505236,
            26.081282599999994
          ],
          [
            -80.147869,
            26.081315399999998
          ],
          [
            -80.1475085,
            26.0813178
          ],
          [
            -80.1423066,
            26.081352199999998
          ],
          [
            -80.1419398,
            26.081343800000003
          ],
          [
            -80.1415765,
            26.081334099999996
          ],
          [
            -80.1411806,
            26.0813193
          ],
          [
            -80.1408415,
            26.0813042
          ],
          [
            -80.1400781,
            26.081267300000004
          ],
          [
            -80.1398752,
            26.0812546
          ],
          [
            -80.1396199,
            26.0812277
          ],
          [
            -80.13909960000001,
            26.0811688
          ],
          [
            -80.1388389,
            26.0811379
          ],
          [
            -80.1386006,
            26.081106699999996
          ],
          [
            -80.1383571,
            26.0810741
          ],
          [
            -80.13811830000002,
            26.081038199999995
          ],
          [
            -80.1378551,
            26.0809975
          ],
          [
            -80.1376247,
            26.080958099999993
          ],
          [
            -80.1373912,
            26.0809166
          ],
          [
            -80.1371575,
            26.0808719
          ],
          [
            -80.1369005,
            26.080822100000002
          ],
          [
            -80.13547570000001,
            26.080536699999993
          ],
          [
            -80.1348569,
            26.0804419
          ],
          [
            -80.13481749922288,
            26.080434307734464
          ]
        ]
      }
    },
    {
      "type": "Feature",
      "properties": {
        "segment_id": "I595-EB-FDOT-012579-012860",
        "road": "I-595",
        "facility": "general_purpose_mainline",
        "direction": "EB",
        "fdot_roadway": "86095000",
        "fdot_segment_index": 8,
        "travel_order": 8,
        "begin_post": 12.579,
        "end_post": 12.86,
        "desc_from": "N/A",
        "desc_to": "BEG BRIDGE 864122",
        "aadt": 7500,
        "aadt_year": 2025,
        "cosite": "862810",
        "county": "Broward",
        "district": "4",
        "fdot_objectid": 6534,
        "segmentation_source": "FDOT RCI Annual Average Daily Traffic",
        "physical_geometry_source": "OpenStreetMap / Overpass",
        "segmentation_method": "FDOT AADT boundary coordinates projected to physical OSM carriageway"
      },
      "geometry": {
        "type": "LineString",
        "coordinates": [
          [
            -80.13481749922288,
            26.080434307734464
          ],
          [
            -80.1342518,
            26.080325300000005
          ],
          [
            -80.1341076,
            26.0803036
          ],
          [
            -80.1339703,
            26.080280000000005
          ],
          [
            -80.1338414,
            26.08026449999999
          ],
          [
            -80.1337128,
            26.080255
          ],
          [
            -80.1335749,
            26.080248299999997
          ],
          [
            -80.1334347,
            26.0802476
          ],
          [
            -80.1332953,
            26.0802531
          ],
          [
            -80.1331458,
            26.0802665
          ],
          [
            -80.1330052,
            26.0802813
          ],
          [
            -80.1328563,
            26.0803074
          ],
          [
            -80.1327187,
            26.0803362
          ],
          [
            -80.1325884,
            26.080372600000004
          ],
          [
            -80.1324563,
            26.0804199
          ],
          [
            -80.1323152,
            26.080471099999997
          ],
          [
            -80.1321602,
            26.080532599999994
          ],
          [
            -80.1319972,
            26.080615
          ],
          [
            -80.131795,
            26.080722999999992
          ],
          [
            -80.1312685,
            26.0810199
          ],
          [
            -80.1306497290904,
            26.081372452560654
          ]
        ]
      }
    },
    {
      "type": "Feature",
      "properties": {
        "segment_id": "I595-WB-FDOT-000000-004182",
        "road": "I-595",
        "facility": "general_purpose_mainline",
        "direction": "WB",
        "fdot_roadway": "86095000",
        "fdot_segment_index": 1,
        "travel_order": 8,
        "begin_post": 0.0,
        "end_post": 4.182,
        "desc_from": "OFF TO NOB HILL RD",
        "desc_to": "Bridge No-860648",
        "aadt": 108000,
        "aadt_year": 2025,
        "cosite": "862803",
        "county": "Broward",
        "district": "4",
        "fdot_objectid": 6684,
        "segmentation_source": "FDOT RCI Annual Average Daily Traffic",
        "physical_geometry_source": "OpenStreetMap / Overpass",
        "segmentation_method": "FDOT AADT boundary coordinates projected to physical OSM carriageway"
      },
      "geometry": {
        "type": "LineString",
        "coordinates": [
          [
            -80.33059410897228,
            26.11854354262251
          ],
          [
            -80.3301313,
            26.118479399999995
          ],
          [
            -80.3296275,
            26.1184062
          ],
          [
            -80.3284945,
            26.118224799999993
          ],
          [
            -80.3280102,
            26.118133599999997
          ],
          [
            -80.3275648,
            26.118043499999995
          ],
          [
            -80.3266952,
            26.1178626
          ],
          [
            -80.3211755,
            26.116630599999997
          ],
          [
            -80.31481680000002,
            26.115090100000003
          ],
          [
            -80.3141999,
            26.1149419
          ],
          [
            -80.3129407,
            26.114640999999992
          ],
          [
            -80.3075236,
            26.113253599999997
          ],
          [
            -80.3046063,
            26.112553999999996
          ],
          [
            -80.29809360000002,
            26.110993099999998
          ],
          [
            -80.2971114,
            26.110758199999996
          ],
          [
            -80.2909933,
            26.109227099999995
          ],
          [
            -80.2887078,
            26.1087154
          ],
          [
            -80.2863339,
            26.1081419
          ],
          [
            -80.2851922,
            26.107868199999995
          ],
          [
            -80.2824891,
            26.1072201
          ],
          [
            -80.2814715,
            26.106977299999997
          ],
          [
            -80.27948290000002,
            26.1064915
          ],
          [
            -80.2762197,
            26.105622199999992
          ],
          [
            -80.27279160000002,
            26.104793
          ],
          [
            -80.2699743,
            26.1041136
          ],
          [
            -80.2659972,
            26.1031345
          ],
          [
            -80.26567055955167,
            26.1030570310168
          ]
        ]
      }
    },
    {
      "type": "Feature",
      "properties": {
        "segment_id": "I595-WB-FDOT-004182-005142",
        "road": "I-595",
        "facility": "general_purpose_mainline",
        "direction": "WB",
        "fdot_roadway": "86095000",
        "fdot_segment_index": 2,
        "travel_order": 7,
        "begin_post": 4.182,
        "end_post": 5.142,
        "desc_from": "Bridge No-860648",
        "desc_to": "Bridge No-860391",
        "aadt": 154256,
        "aadt_year": 2025,
        "cosite": "860380",
        "county": "Broward",
        "district": "4",
        "fdot_objectid": 7323,
        "segmentation_source": "FDOT RCI Annual Average Daily Traffic",
        "physical_geometry_source": "OpenStreetMap / Overpass",
        "segmentation_method": "FDOT AADT boundary coordinates projected to physical OSM carriageway"
      },
      "geometry": {
        "type": "LineString",
        "coordinates": [
          [
            -80.26567055955167,
            26.1030570310168
          ],
          [
            -80.2648571,
            26.102864099999994
          ],
          [
            -80.2593884,
            26.101554000000004
          ],
          [
            -80.2577894,
            26.101155099999996
          ],
          [
            -80.2577055,
            26.101134199999997
          ],
          [
            -80.2568426,
            26.100899599999998
          ],
          [
            -80.2555877,
            26.100500399999994
          ],
          [
            -80.2543296,
            26.100076000000005
          ],
          [
            -80.2535317,
            26.099807199999997
          ],
          [
            -80.2527251,
            26.099551099999996
          ],
          [
            -80.2516799,
            26.099249699999998
          ],
          [
            -80.2513258,
            26.099152599999993
          ],
          [
            -80.2509605,
            26.0990588
          ],
          [
            -80.25093876244722,
            26.099053481726088
          ]
        ]
      }
    },
    {
      "type": "Feature",
      "properties": {
        "segment_id": "I595-WB-FDOT-005142-006680",
        "road": "I-595",
        "facility": "general_purpose_mainline",
        "direction": "WB",
        "fdot_roadway": "86095000",
        "fdot_segment_index": 3,
        "travel_order": 6,
        "begin_post": 5.142,
        "end_post": 6.68,
        "desc_from": "Bridge No-860391",
        "desc_to": "Bridge No-860378",
        "aadt": 154256,
        "aadt_year": 2025,
        "cosite": "860380",
        "county": "Broward",
        "district": "4",
        "fdot_objectid": 6608,
        "segmentation_source": "FDOT RCI Annual Average Daily Traffic",
        "physical_geometry_source": "OpenStreetMap / Overpass",
        "segmentation_method": "FDOT AADT boundary coordinates projected to physical OSM carriageway"
      },
      "geometry": {
        "type": "LineString",
        "coordinates": [
          [
            -80.25093876244722,
            26.099053481726088
          ],
          [
            -80.25026280000002,
            26.0988881
          ],
          [
            -80.2491097,
            26.098640000000003
          ],
          [
            -80.2479172,
            26.098423400000005
          ],
          [
            -80.2463271,
            26.09816169999999
          ],
          [
            -80.2458979,
            26.098091099999998
          ],
          [
            -80.2450646,
            26.0979377
          ],
          [
            -80.2445794,
            26.097839199999992
          ],
          [
            -80.2441054,
            26.0977383
          ],
          [
            -80.2436226,
            26.0976293
          ],
          [
            -80.2429268,
            26.097463099999995
          ],
          [
            -80.2420489,
            26.0972373
          ],
          [
            -80.2389283,
            26.0964881
          ],
          [
            -80.2364443,
            26.0958923
          ],
          [
            -80.2350383,
            26.095566399999996
          ],
          [
            -80.2343894,
            26.095413499999996
          ],
          [
            -80.2334535,
            26.095186099999996
          ],
          [
            -80.22703275330039,
            26.093626321444166
          ]
        ]
      }
    },
    {
      "type": "Feature",
      "properties": {
        "segment_id": "I595-WB-FDOT-006680-007350",
        "road": "I-595",
        "facility": "general_purpose_mainline",
        "direction": "WB",
        "fdot_roadway": "86095000",
        "fdot_segment_index": 4,
        "travel_order": 5,
        "begin_post": 6.68,
        "end_post": 7.35,
        "desc_from": "Bridge No-860378",
        "desc_to": "SR-91/TURNPIKE NB",
        "aadt": 229000,
        "aadt_year": 2025,
        "cosite": "862806",
        "county": "Broward",
        "district": "4",
        "fdot_objectid": 7302,
        "segmentation_source": "FDOT RCI Annual Average Daily Traffic",
        "physical_geometry_source": "OpenStreetMap / Overpass",
        "segmentation_method": "FDOT AADT boundary coordinates projected to physical OSM carriageway"
      },
      "geometry": {
        "type": "LineString",
        "coordinates": [
          [
            -80.22703275330039,
            26.093626321444166
          ],
          [
            -80.2269594,
            26.0936085
          ],
          [
            -80.2266505,
            26.0935398
          ],
          [
            -80.2246786,
            26.093099499999994
          ],
          [
            -80.2239661,
            26.092953599999998
          ],
          [
            -80.2218014,
            26.092526
          ],
          [
            -80.2196781,
            26.09197929999999
          ],
          [
            -80.2176236,
            26.091370700000002
          ],
          [
            -80.21664711548925,
            26.0910853453165
          ]
        ]
      }
    },
    {
      "type": "Feature",
      "properties": {
        "segment_id": "I595-WB-FDOT-007350-009892",
        "road": "I-595",
        "facility": "general_purpose_mainline",
        "direction": "WB",
        "fdot_roadway": "86095000",
        "fdot_segment_index": 5,
        "travel_order": 4,
        "begin_post": 7.35,
        "end_post": 9.892,
        "desc_from": "SR-91/TURNPIKE NB",
        "desc_to": "Bridge No-860427",
        "aadt": 229000,
        "aadt_year": 2025,
        "cosite": "862806",
        "county": "Broward",
        "district": "4",
        "fdot_objectid": 6908,
        "segmentation_source": "FDOT RCI Annual Average Daily Traffic",
        "physical_geometry_source": "OpenStreetMap / Overpass",
        "segmentation_method": "FDOT AADT boundary coordinates projected to physical OSM carriageway"
      },
      "geometry": {
        "type": "LineString",
        "coordinates": [
          [
            -80.21664711548925,
            26.0910853453165
          ],
          [
            -80.2162288,
            26.090963099999996
          ],
          [
            -80.21528570000001,
            26.090726199999995
          ],
          [
            -80.21424130000001,
            26.0904327
          ],
          [
            -80.2138923,
            26.0903279
          ],
          [
            -80.2134344,
            26.090184399999995
          ],
          [
            -80.2130866,
            26.090072899999996
          ],
          [
            -80.2125173,
            26.0898827
          ],
          [
            -80.2119517,
            26.0896791
          ],
          [
            -80.2114989,
            26.089513599999993
          ],
          [
            -80.2109414,
            26.0892943
          ],
          [
            -80.2100505,
            26.088929599999997
          ],
          [
            -80.2096969,
            26.0887751
          ],
          [
            -80.2092258,
            26.0885731
          ],
          [
            -80.2085217,
            26.088253599999998
          ],
          [
            -80.2078774,
            26.087934500000006
          ],
          [
            -80.2070542,
            26.087504599999992
          ],
          [
            -80.2062175,
            26.087052999999997
          ],
          [
            -80.2048815,
            26.0863318
          ],
          [
            -80.2044983,
            26.086138599999988
          ],
          [
            -80.2041194,
            26.0859576
          ],
          [
            -80.2034472,
            26.085625099999994
          ],
          [
            -80.2023685,
            26.085172199999995
          ],
          [
            -80.2015404,
            26.084894499999997
          ],
          [
            -80.2008494,
            26.0846905
          ],
          [
            -80.2001489,
            26.0845123
          ],
          [
            -80.1995257,
            26.0843767
          ],
          [
            -80.1993849,
            26.084348599999995
          ],
          [
            -80.199027,
            26.0842799
          ],
          [
            -80.1985411,
            26.0842131
          ],
          [
            -80.1984007,
            26.0841934
          ],
          [
            -80.1981584,
            26.084162699999997
          ],
          [
            -80.1979346,
            26.0841371
          ],
          [
            -80.1970605,
            26.08408469999999
          ],
          [
            -80.1968624,
            26.084075000000002
          ],
          [
            -80.1966104,
            26.0840601
          ],
          [
            -80.1963449,
            26.084052200000002
          ],
          [
            -80.19598380000001,
            26.0840484
          ],
          [
            -80.1956297,
            26.0840399
          ],
          [
            -80.1952531,
            26.084033099999996
          ],
          [
            -80.19477020000001,
            26.0840285
          ],
          [
            -80.1941488,
            26.084031399999997
          ],
          [
            -80.1930438,
            26.084043000000005
          ],
          [
            -80.1920776,
            26.0840497
          ],
          [
            -80.19060940000001,
            26.084058699999996
          ],
          [
            -80.1857999,
            26.0841294
          ],
          [
            -80.1849588,
            26.084114
          ],
          [
            -80.183843,
            26.0840677
          ],
          [
            -80.1828902,
            26.084006
          ],
          [
            -80.1819964,
            26.083922899999997
          ],
          [
            -80.1800179,
            26.083684899999998
          ],
          [
            -80.17765117848387,
            26.08342884308345
          ]
        ]
      }
    },
    {
      "type": "Feature",
      "properties": {
        "segment_id": "I595-WB-FDOT-009892-010380",
        "road": "I-595",
        "facility": "general_purpose_mainline",
        "direction": "WB",
        "fdot_roadway": "86095000",
        "fdot_segment_index": 6,
        "travel_order": 3,
        "begin_post": 9.892,
        "end_post": 10.38,
        "desc_from": "Bridge No-860427",
        "desc_to": "Bridge No-860535",
        "aadt": 88500,
        "aadt_year": 2025,
        "cosite": "862807",
        "county": "Broward",
        "district": "4",
        "fdot_objectid": 6328,
        "segmentation_source": "FDOT RCI Annual Average Daily Traffic",
        "physical_geometry_source": "OpenStreetMap / Overpass",
        "segmentation_method": "FDOT AADT boundary coordinates projected to physical OSM carriageway"
      },
      "geometry": {
        "type": "LineString",
        "coordinates": [
          [
            -80.17765117848387,
            26.08342884308345
          ],
          [
            -80.177392,
            26.0834008
          ],
          [
            -80.1758994,
            26.083278200000002
          ],
          [
            -80.1752607,
            26.083209099999994
          ],
          [
            -80.1742196,
            26.083072499999997
          ],
          [
            -80.1734066,
            26.082944
          ],
          [
            -80.172623,
            26.0828149
          ],
          [
            -80.1718735,
            26.082686699999996
          ],
          [
            -80.1712289,
            26.082580199999995
          ],
          [
            -80.16989774017514,
            26.082396808743436
          ]
        ]
      }
    },
    {
      "type": "Feature",
      "properties": {
        "segment_id": "I595-WB-FDOT-010380-012579",
        "road": "I-595",
        "facility": "general_purpose_mainline",
        "direction": "WB",
        "fdot_roadway": "86095000",
        "fdot_segment_index": 7,
        "travel_order": 2,
        "begin_post": 10.38,
        "end_post": 12.579,
        "desc_from": "Bridge No-860535",
        "desc_to": "N/A",
        "aadt": 88500,
        "aadt_year": 2025,
        "cosite": "862807",
        "county": "Broward",
        "district": "4",
        "fdot_objectid": 7246,
        "segmentation_source": "FDOT RCI Annual Average Daily Traffic",
        "physical_geometry_source": "OpenStreetMap / Overpass",
        "segmentation_method": "FDOT AADT boundary coordinates projected to physical OSM carriageway"
      },
      "geometry": {
        "type": "LineString",
        "coordinates": [
          [
            -80.16989774017514,
            26.082396808743436
          ],
          [
            -80.1676441,
            26.082086299999997
          ],
          [
            -80.1660947,
            26.081919499999998
          ],
          [
            -80.1637437,
            26.081700299999994
          ],
          [
            -80.1627102,
            26.081648199999997
          ],
          [
            -80.1596733,
            26.081492700000002
          ],
          [
            -80.1591729,
            26.0814806
          ],
          [
            -80.1568422,
            26.0814597
          ],
          [
            -80.1426825,
            26.081531800000004
          ],
          [
            -80.1422149,
            26.081532500000005
          ],
          [
            -80.1418692,
            26.081530300000004
          ],
          [
            -80.1415134,
            26.0815231
          ],
          [
            -80.1411529,
            26.08151
          ],
          [
            -80.1406836,
            26.081474399999998
          ],
          [
            -80.1401874,
            26.081434600000005
          ],
          [
            -80.1396707,
            26.081388299999997
          ],
          [
            -80.1391546,
            26.0813347
          ],
          [
            -80.1369166,
            26.0810629
          ],
          [
            -80.1354464,
            26.080904599999993
          ],
          [
            -80.1348788,
            26.080889699999997
          ],
          [
            -80.13479317812401,
            26.080885747921833
          ]
        ]
      }
    },
    {
      "type": "Feature",
      "properties": {
        "segment_id": "I595-WB-FDOT-012579-012860",
        "road": "I-595",
        "facility": "general_purpose_mainline",
        "direction": "WB",
        "fdot_roadway": "86095000",
        "fdot_segment_index": 8,
        "travel_order": 1,
        "begin_post": 12.579,
        "end_post": 12.86,
        "desc_from": "N/A",
        "desc_to": "BEG BRIDGE 864122",
        "aadt": 7500,
        "aadt_year": 2025,
        "cosite": "862810",
        "county": "Broward",
        "district": "4",
        "fdot_objectid": 6534,
        "segmentation_source": "FDOT RCI Annual Average Daily Traffic",
        "physical_geometry_source": "OpenStreetMap / Overpass",
        "segmentation_method": "FDOT AADT boundary coordinates projected to physical OSM carriageway"
      },
      "geometry": {
        "type": "LineString",
        "coordinates": [
          [
            -80.13479317812401,
            26.080885747921833
          ],
          [
            -80.13453,
            26.080873599999993
          ],
          [
            -80.1341388,
            26.080859399999998
          ],
          [
            -80.1337802,
            26.080849300000004
          ],
          [
            -80.1334081,
            26.080842899999997
          ],
          [
            -80.13291870000002,
            26.080842200000003
          ],
          [
            -80.132792,
            26.080843799999997
          ],
          [
            -80.132673,
            26.080846899999997
          ],
          [
            -80.1325581,
            26.080852699999998
          ],
          [
            -80.1324377,
            26.080863599999997
          ],
          [
            -80.1323062,
            26.0808778
          ],
          [
            -80.1321803,
            26.0808972
          ],
          [
            -80.1320598,
            26.080920099999993
          ],
          [
            -80.13195,
            26.080943599999994
          ],
          [
            -80.1318288,
            26.0809742
          ],
          [
            -80.1317144,
            26.081004899999996
          ],
          [
            -80.1315983,
            26.081043499999993
          ],
          [
            -80.13149050000001,
            26.0810821
          ],
          [
            -80.1313724,
            26.0811291
          ],
          [
            -80.1312625,
            26.081175500000004
          ],
          [
            -80.1311572,
            26.081227099999992
          ],
          [
            -80.13106210000001,
            26.0812781
          ],
          [
            -80.1308543,
            26.081397300000003
          ],
          [
            -80.13072633455879,
            26.08147469272194
          ]
        ]
      }
    }
  ]
}