{"type": "FeatureCollection", "features": [{"type": "Feature", "id": 60, "geometry": {"type": "LineString", "coordinates": [[-80.3306570643167, 26.1181733373769], [-80.3302251538789, 26.1181085233337], [-80.330073158638, 26.1180826026743], [-80.329212493462, 26.1179334847524], [-80.3283593034074, 26.1177832308594], [-80.3268589301706, 26.1174653901671], [-80.32604001897, 26.1172788439132], [-80.3255926750151, 26.1171687024552], [-80.3236902208635, 26.1166917378666], [-80.3201639181785, 26.1159173022285], [-80.3176132119135, 26.115311489899], [-80.3158688369358, 26.1149421477064], [-80.3144023462938, 26.1146151950607], [-80.3122012413527, 26.1140744520288], [-80.3094394032012, 26.1133876777699], [-80.3074822487489, 26.1129120971741], [-80.3035182110198, 26.1119635196239], [-80.3007259335774, 26.1112962005974], [-80.2975915505076, 26.1105399260651], [-80.2918678029232, 26.1091533039541], [-80.2876730266612, 26.1081377174252], [-80.2822634679582, 26.1068309528233], [-80.2819655871007, 26.1067547254356], [-80.2798288670167, 26.1062350505247], [-80.2785292233563, 26.1059072190647], [-80.2764416441309, 26.1053568401931], [-80.2708557385423, 26.1040067240985], [-80.2654464290409, 26.1026876475932], [-80.2639128471202, 26.1023135217142], [-80.2594238804661, 26.101226976974], [-80.2574695946638, 26.1006988583479], [-80.2562063866405, 26.1003053225673], [-80.255024291796, 26.0998969570286], [-80.2540240473163, 26.0995535138669], [-80.2528451820261, 26.0991695300035], [-80.2514772793461, 26.0987906477604], [-80.2506662762268, 26.0985846805692], [-80.2506315743765, 26.0985762990044], [-80.2501056767436, 26.0984492355717], [-80.2497923726998, 26.0983735366141], [-80.2485822281989, 26.0981356259934], [-80.246333330518, 26.0977764848281], [-80.2454508378296, 26.0976438054711], [-80.244593642089, 26.0974870105776], [-80.243279106056, 26.0972149924152], [-80.2412235382726, 26.0967135569453], [-80.2399548847274, 26.0964064122931], [-80.2370252160564, 26.0956995148445], [-80.2349656971646, 26.0952299056144], [-80.2330551466318, 26.0947565483078], [-80.2310891200608, 26.0942523947281], [-80.2258494427823, 26.0929718692459], [-80.2232681877923, 26.0923728834212], [-80.2198915958071, 26.0916049855047], [-80.217514498906, 26.0910191873053], [-80.2155916125943, 26.090539328971], [-80.2148023025562, 26.0903309683669], [-80.2133336877293, 26.0898962312858], [-80.2124310915865, 26.0895819755709], [-80.2122666233078, 26.0895247145302], [-80.2115208039112, 26.0892534051667], [-80.210060910033, 26.088621883683], [-80.2087828745157, 26.0879725841498], [-80.2064964180225, 26.0867316885623], [-80.2053873283904, 26.0861485562202], [-80.2047686871223, 26.0858463376356], [-80.2039609531253, 26.0854706328191], [-80.2034869705902, 26.0852687304943], [-80.2032361973469, 26.0851618964146], [-80.2028456811337, 26.0850056838536], [-80.2027179500144, 26.0849545968968], [-80.2024089936504, 26.0848488358097], [-80.201568385108, 26.0845807060892], [-80.2007236889958, 26.0843509925747], [-80.1996143284738, 26.0841057442273], [-80.1985302890137, 26.0839543810918], [-80.1975497267967, 26.083855168335], [-80.1972744665705, 26.0838390108678], [-80.1968439481726, 26.0838137405912], [-80.1960445114193, 26.0837999036577], [-80.1928015636692, 26.0837972214099], [-80.1861175856197, 26.0838567755049], [-80.1848198149749, 26.0838353866618], [-80.1836935802013, 26.0837821337582], [-80.1823858426864, 26.0836997178132], [-80.1808432841744, 26.0834996160638], [-80.1778570043555, 26.0831306501277], [-80.1763148462619, 26.0829165135832], [-80.1721412870912, 26.0823910775627], [-80.1718753205188, 26.0823575881475], [-80.1687513262478, 26.0819619689495], [-80.1657317439137, 26.0816386897228], [-80.1641457564034, 26.081525837934], [-80.1627441565098, 26.0814058005054], [-80.1612069253077, 26.0813340473317], [-80.1588445961387, 26.0812444993007], [-80.1566800733893, 26.0812353790981], [-80.1543481814861, 26.0812609162715], [-80.1527683903289, 26.0812713250549], [-80.1424728313694, 26.0813271189228], [-80.141252297295, 26.0813093109961], [-80.1403620136702, 26.081256542176], [-80.139717049324, 26.0811999602908], [-80.138971210079, 26.0811277302296], [-80.1382346374991, 26.0810539806004], [-80.1377659071366, 26.0809906204402], [-80.1370940134806, 26.0808915753324], [-80.134792544992, 26.0804220404973], [-80.1343531894341, 26.0803439961444], [-80.133991870492, 26.0802798171169], [-80.1338484389867, 26.0802676301506], [-80.1335486878798, 26.080247376049], [-80.1332869098219, 26.0802454157758], [-80.132956214947, 26.0802937078965], [-80.1326959996937, 26.0803491170586], [-80.1325851447719, 26.0803788599421], [-80.1325249165807, 26.0803950202931], [-80.1322719256119, 26.0804772940213], [-80.1319329666898, 26.0806394978555], [-80.1315900442957, 26.0808351940214], [-80.1306370052035, 26.081354240626]]}, "properties": {"OBJECTID": 60, "ROADWAY": "86095000", "RANK": "1", "ROUTE": "I   595", "ROUTENUM": "595", "DISTRICT": "4", "COUNTYDOT": "86", "COUNTY": "Broward", "MNG_DIST": "4", "BEGIN_POST": 0, "END_POST": 12.86, "SHAPE_LENG": 20628.3336, "Shape.STLength()": 20628.3335860293}}]}